HYPERFIELD-1A           
1 60562U 24149CY  26068.76488211  .00008569  00000+0  30052-3 0  9998
2 60562  97.3842 149.5066 0003865 313.7844  46.3076 15.29681349 86836
STARLINK-32596          
1 62316U 24239R   26068.64059437  .00031017  00000+0  10551-2 0  9993
2 62316  53.1574 194.3407 0001175  72.0115 288.1014 15.30197640 69378
