[{"OBJECT_NAME":"HYPERFIELD-1A","OBJECT_ID":"2024-149CY","EPOCH":"2026-03-09T18:21:25.814304","MEAN_MOTION":15.29681349,"ECCENTRICITY":0.00038648,"INCLINATION":97.3842,"RA_OF_ASC_NODE":149.5066,"ARG_OF_PERICENTER":313.7844,"MEAN_ANOMALY":46.3076,"EPHEMERIS_TYPE":0,"CLASSIFICATION_TYPE":"U","NORAD_CAT_ID":60562,"ELEMENT_SET_NO":999,"REV_AT_EPOCH":8683,"BSTAR":0.00030052114,"MEAN_MOTION_DOT":8.569e-5,"MEAN_MOTION_DDOT":0},{"OBJECT_NAME":"STARLINK-32596","OBJECT_ID":"2024-239R","EPOCH":"2026-03-09T15:22:27.353568","MEAN_MOTION":15.3019764,"ECCENTRICITY":0.0001175,"INCLINATION":53.1574,"RA_OF_ASC_NODE":194.3407,"ARG_OF_PERICENTER":72.0115,"MEAN_ANOMALY":288.1014,"EPHEMERIS_TYPE":0,"CLASSIFICATION_TYPE":"U","NORAD_CAT_ID":62316,"ELEMENT_SET_NO":999,"REV_AT_EPOCH":6937,"BSTAR":0.0010551,"MEAN_MOTION_DOT":0.00031017,"MEAN_MOTION_DDOT":0}]
